{
    "links": {
        "self": "http://www.neowsapp.com/rest/v1/neo/3580324?api_key=iIulBulltgU6a56xZRHN4H3l9WmuAYTsLGpBGhQ2"
    },
    "id": "3580324",
    "neo_reference_id": "3580324",
    "name": "(2011 SM189)",
    "designation": "2011 SM189",
    "nasa_jpl_url": "http://ssd.jpl.nasa.gov/sbdb.cgi?sstr=3580324",
    "absolute_magnitude_h": 24.7,
    "estimated_diameter": {
        "kilometers": {
            "estimated_diameter_min": 0.0305179233,
            "estimated_diameter_max": 0.0682401509
        },
        "meters": {
            "estimated_diameter_min": 30.5179232594,
            "estimated_diameter_max": 68.2401509401
        },
        "miles": {
            "estimated_diameter_min": 0.0189629525,
            "estimated_diameter_max": 0.0424024508
        },
        "feet": {
            "estimated_diameter_min": 100.1244233463,
            "estimated_diameter_max": 223.8850168104
        }
    },
    "is_potentially_hazardous_asteroid": false,
    "close_approach_data": [
        {
            "close_approach_date": "2011-09-14",
            "close_approach_date_full": "2011-Sep-14 01:44",
            "epoch_date_close_approach": 1315964640000,
            "relative_velocity": {
                "kilometers_per_second": "10.4586035688",
                "kilometers_per_hour": "37650.9728476681",
                "miles_per_hour": "23394.8503230413"
            },
            "miss_distance": {
                "astronomical": "0.0616659745",
                "lunar": "23.9880640805",
                "kilometers": "9225098.436674315",
                "miles": "5732210.362422947"
            },
            "orbiting_body": "Earth"
        }
    ],
    "orbital_data": {
        "orbit_id": "4",
        "orbit_determination_date": "2017-04-06 08:52:35",
        "first_observation_date": "2011-09-29",
        "last_observation_date": "2011-09-30",
        "data_arc_in_days": 1,
        "observations_used": 12,
        "orbit_uncertainty": "9",
        "minimum_orbit_intersection": ".0610638",
        "jupiter_tisserand_invariant": "3.212",
        "epoch_osculation": "2455834.5",
        "eccentricity": ".5935833085198591",
        "semi_major_axis": "2.459794273122381",
        "inclination": "7.862362844077975",
        "ascending_node_longitude": "190.8301449911081",
        "orbital_period": "1409.115544984258",
        "perihelion_distance": ".9997014502041961",
        "perihelion_argument": "132.2304139067041",
        "aphelion_distance": "3.919887096040566",
        "perihelion_time": "2455796.133427054564",
        "mean_anomaly": "9.801869200521283",
        "mean_motion": ".2554794042840695",
        "equinox": "J2000",
        "orbit_class": {
            "orbit_class_type": "APO",
            "orbit_class_description": "Near-Earth asteroid orbits which cross the Earth’s orbit similar to that of 1862 Apollo",
            "orbit_class_range": "a (semi-major axis) > 1.0 AU; q (perihelion) < 1.017 AU"
        }
    },
    "is_sentry_object": false
}